start=new Date('2022-09-22T00:00:00.000Z').valueOf();
sats=[{"GP_ID":"213191464","OBJECT_ID":"2021-104AS","ARG_OF_PERICENTER":"38.7077","BSTAR":"-0.00021901000000","DECAY_DATE":null,"OBJECT_NAME":"STARLINK-3097","CLASSIFICATION_TYPE":"U","PERIAPSIS":"538.391","OBJECT_TYPE":"PAYLOAD","RCS_SIZE":"LARGE","TIME_SYSTEM":"UTC","SITE":"AFETR","ELEMENT_SET_NO":"999","TLE_LINE2":"2 49448  53.2158 136.9402 0001915  38.7077 321.4052 15.08849739 47831","TLE_LINE1":"1 49448U 21104AS  22264.91018691 -.00003773  00000-0 -21901-3 0  9996","REV_AT_EPOCH":"4783","ECCENTRICITY":"0.00019150","MEAN_MOTION_DDOT":"0.0000000000000","APOAPSIS":"541.040","EPOCH":"2022-09-21T21:50:40.149024","PERIOD":"95.437","LAUNCH_DATE":"2021-11-13","MEAN_ELEMENT_THEORY":"SGP4","SEMIMAJOR_AXIS":"6917.851","MEAN_ANOMALY":"321.4052","COUNTRY_CODE":"US","INCLINATION":"53.2158","CENTER_NAME":"EARTH","MEAN_MOTION_DOT":"-0.00003773","RA_OF_ASC_NODE":"136.9402","FILE":"3579752","MEAN_MOTION":"15.08849739","NORAD_CAT_ID":"49448","REF_FRAME":"TEME","EPHEMERIS_TYPE":"0"},{"BSTAR":"0.00034105000000","ARG_OF_PERICENTER":"57.4541","OBJECT_ID":"2021-104AT","GP_ID":"213192716","OBJECT_NAME":"STARLINK-3137","DECAY_DATE":null,"CLASSIFICATION_TYPE":"U","PERIAPSIS":"538.474","OBJECT_TYPE":"PAYLOAD","RCS_SIZE":"LARGE","ELEMENT_SET_NO":"999","SITE":"AFETR","TIME_SYSTEM":"UTC","TLE_LINE2":"2 49449  53.2148 139.3912 0001831  57.4541 302.6628 15.08841617 47753","MEAN_MOTION_DDOT":"0.0000000000000","ECCENTRICITY":"0.00018310","TLE_LINE1":"1 49449U 21104AT  22264.36554525  .00005144  00000-0  34105-3 0  9999","REV_AT_EPOCH":"4775","APOAPSIS":"541.007","LAUNCH_DATE":"2021-11-13","PERIOD":"95.437","EPOCH":"2022-09-21T08:46:23.109600","INCLINATION":"53.2148","COUNTRY_CODE":"US","MEAN_ANOMALY":"302.6628","SEMIMAJOR_AXIS":"6917.875","MEAN_ELEMENT_THEORY":"SGP4","FILE":"3579752","MEAN_MOTION":"15.08841617","NORAD_CAT_ID":"49449","RA_OF_ASC_NODE":"139.3912","CENTER_NAME":"EARTH","MEAN_MOTION_DOT":"0.00005144","EPHEMERIS_TYPE":"0","REF_FRAME":"TEME"},{"ECCENTRICITY":"0.00020670","REV_AT_EPOCH":"4888","TLE_LINE1":"1 49450U 21104AU  22264.77034922 -.00000157  00000-0  82688-5 0  9991","MEAN_MOTION_DDOT":"0.0000000000000","APOAPSIS":"541.187","RA_OF_ASC_NODE":"137.5623","CENTER_NAME":"EARTH","MEAN_MOTION_DOT":"-0.00000157","FILE":"3579562","MEAN_MOTION":"15.08836275","NORAD_CAT_ID":"49450","REF_FRAME":"TEME","EPHEMERIS_TYPE":"0","EPOCH":"2022-09-21T18:29:18.172608","PERIOD":"95.438","LAUNCH_DATE":"2021-11-13","SEMIMAJOR_AXIS":"6917.892","MEAN_ANOMALY":"311.7727","MEAN_ELEMENT_THEORY":"SGP4","INCLINATION":"53.2151","COUNTRY_CODE":"US","PERIAPSIS":"538.327","OBJECT_ID":"2021-104AU","GP_ID":"213164897","BSTAR":"0.00000826880000","ARG_OF_PERICENTER":"48.3442","DECAY_DATE":null,"CLASSIFICATION_TYPE":"U","OBJECT_NAME":"STARLINK-3127","ELEMENT_SET_NO":"999","TIME_SYSTEM":"UTC","SITE":"AFETR","TLE_LINE2":"2 49450  53.2151 137.5623 0002067  48.3442 311.7727 15.08836275 48889","OBJECT_TYPE":"PAYLOAD","RCS_SIZE":"LARGE"},{"RCS_SIZE":"LARGE","OBJECT_TYPE":"PAYLOAD","TLE_LINE2":"2 49451  53.2167 137.6230 0001776  46.5598 313.5541 15.08843819 47818","SITE":"AFETR","TIME_SYSTEM":"UTC","ELEMENT_SET_NO":"999","DECAY_DATE":null,"CLASSIFICATION_TYPE":"U","OBJECT_NAME":"STARLINK-3125","ARG_OF_PERICENTER":"46.5598","BSTAR":"-0.00010974000000","GP_ID":"213191214","OBJECT_ID":"2021-104AV","PERIAPSIS":"538.505","COUNTRY_CODE":"US","INCLINATION":"53.2167","SEMIMAJOR_AXIS":"6917.869","MEAN_ELEMENT_THEORY":"SGP4","MEAN_ANOMALY":"313.5541","LAUNCH_DATE":"2021-11-13","EPOCH":"2022-09-21T18:13:24.102336","PERIOD":"95.437","EPHEMERIS_TYPE":"0","REF_FRAME":"TEME","FILE":"3579752","MEAN_MOTION":"15.08843819","NORAD_CAT_ID":"49451","MEAN_MOTION_DOT":"-0.00002034","CENTER_NAME":"EARTH","RA_OF_ASC_NODE":"137.6230","APOAPSIS":"540.962","MEAN_MOTION_DDOT":"0.0000000000000","TLE_LINE1":"1 49451U 21104AV  22264.75930674 -.00002034  00000-0 -10974-3 0  9993","REV_AT_EPOCH":"4781","ECCENTRICITY":"0.00017760"},{"INCLINATION":"53.2174","COUNTRY_CODE":"US","SEMIMAJOR_AXIS":"6917.914","MEAN_ELEMENT_THEORY":"SGP4","MEAN_ANOMALY":"313.3183","LAUNCH_DATE":"2021-11-13","EPOCH":"2022-09-21T21:04:21.562176","PERIOD":"95.438","EPHEMERIS_TYPE":"0","REF_FRAME":"TEME","MEAN_MOTION":"15.08829151","FILE":"3579752","NORAD_CAT_ID":"49452","RA_OF_ASC_NODE":"137.0857","CENTER_NAME":"EARTH","MEAN_MOTION_DOT":"-0.00000619","APOAPSIS":"540.890","MEAN_MOTION_DDOT":"0.0000000000000","ECCENTRICITY":"0.00016070","REV_AT_EPOCH":"4783","TLE_LINE1":"1 49452U 21104AW  22264.87802734 -.00000619  00000-0 -20816-4 0  9996","RCS_SIZE":"LARGE","OBJECT_TYPE":"PAYLOAD","TLE_LINE2":"2 49452  53.2174 137.0857 0001607  46.7943 313.3183 15.08829151 47830","ELEMENT_SET_NO":"999","TIME_SYSTEM":"UTC","SITE":"AFETR","DECAY_DATE":null,"CLASSIFICATION_TYPE":"U","OBJECT_NAME":"STARLINK-3150","BSTAR":"-0.00002081600000","ARG_OF_PERICENTER":"46.7943","OBJECT_ID":"2021-104AW","GP_ID":"213191965","PERIAPSIS":"538.667"},{"OBJECT_TYPE":"PAYLOAD","RCS_SIZE":"LARGE","ELEMENT_SET_NO":"999","TIME_SYSTEM":"UTC","SITE":"AFETR","TLE_LINE2":"2 49453  53.2165 137.6534 0001787  46.4797 313.6344 15.08840129 47810","BSTAR":"0.00004280400000","ARG_OF_PERICENTER":"46.4797","OBJECT_ID":"2021-104AX","GP_ID":"213192216","OBJECT_NAME":"STARLINK-3129","DECAY_DATE":null,"CLASSIFICATION_TYPE":"U","PERIAPSIS":"538.509","LAUNCH_DATE":"2021-11-13","PERIOD":"95.438","EPOCH":"2022-09-21T18:02:47.949504","INCLINATION":"53.2165","COUNTRY_CODE":"US","SEMIMAJOR_AXIS":"6917.880","MEAN_ELEMENT_THEORY":"SGP4","MEAN_ANOMALY":"313.6344","FILE":"3579752","MEAN_MOTION":"15.08840129","NORAD_CAT_ID":"49453","RA_OF_ASC_NODE":"137.6534","CENTER_NAME":"EARTH","MEAN_MOTION_DOT":"0.00000393","EPHEMERIS_TYPE":"0","REF_FRAME":"TEME","MEAN_MOTION_DDOT":"0.0000000000000","ECCENTRICITY":"0.00017870","REV_AT_EPOCH":"4781","TLE_LINE1":"1 49453U 21104AX  22264.75194386  .00000393  00000-0  42804-4 0  9999","APOAPSIS":"540.981"},{"ELEMENT_SET_NO":"999","TIME_SYSTEM":"UTC","SITE":"AFETR","TLE_LINE2":"2 49454  53.2162 139.4240 0001187  79.4324 280.6801 15.08840241 47757","OBJECT_TYPE":"PAYLOAD","RCS_SIZE":"LARGE","PERIAPSIS":"538.924","BSTAR":"0.00006322400000","ARG_OF_PERICENTER":"79.4324","OBJECT_ID":"2021-104AY","GP_ID":"213192959","DECAY_DATE":null,"OBJECT_NAME":"STARLINK-3160","CLASSIFICATION_TYPE":"U","NORAD_CAT_ID":"49454","FILE":"3579752","MEAN_MOTION":"15.08840241","RA_OF_ASC_NODE":"139.4240","MEAN_MOTION_DOT":"0.00000719","CENTER_NAME":"EARTH","EPHEMERIS_TYPE":"0","REF_FRAME":"TEME","LAUNCH_DATE":"2021-11-13","EPOCH":"2022-09-21T08:35:46.879872","PERIOD":"95.438","INCLINATION":"53.2162","COUNTRY_CODE":"US","MEAN_ANOMALY":"280.6801","SEMIMAJOR_AXIS":"6917.880","MEAN_ELEMENT_THEORY":"SGP4","MEAN_MOTION_DDOT":"0.0000000000000","ECCENTRICITY":"0.00011870","REV_AT_EPOCH":"4775","TLE_LINE1":"1 49454U 21104AY  22264.35818148  .00000719  00000-0  63224-4 0  9996","APOAPSIS":"540.566"},{"RCS_SIZE":"LARGE","OBJECT_TYPE":"PAYLOAD","TLE_LINE2":"2 49455  53.2175 137.1029 0001961  46.5398 313.5757 15.08832421 47834","SITE":"AFETR","TIME_SYSTEM":"UTC","ELEMENT_SET_NO":"999","DECAY_DATE":null,"OBJECT_NAME":"STARLINK-3145","CLASSIFICATION_TYPE":"U","GP_ID":"213191715","OBJECT_ID":"2021-104AZ","ARG_OF_PERICENTER":"46.5398","BSTAR":"0.00003379100000","PERIAPSIS":"538.412","MEAN_ELEMENT_THEORY":"SGP4","SEMIMAJOR_AXIS":"6917.904","MEAN_ANOMALY":"313.5757","COUNTRY_CODE":"US","INCLINATION":"53.2175","EPOCH":"2022-09-21T20:57:40.707648","PERIOD":"95.438","LAUNCH_DATE":"2021-11-13","REF_FRAME":"TEME","EPHEMERIS_TYPE":"0","MEAN_MOTION_DOT":"0.00000250","CENTER_NAME":"EARTH","RA_OF_ASC_NODE":"137.1029","FILE":"3579752","NORAD_CAT_ID":"49455","MEAN_MOTION":"15.08832421","APOAPSIS":"541.125","REV_AT_EPOCH":"4783","TLE_LINE1":"1 49455U 21104AZ  22264.87338782  .00000250  00000-0  33791-4 0  9991","ECCENTRICITY":"0.00019610","MEAN_MOTION_DDOT":"0.0000000000000"},{"TLE_LINE2":"2 49456  53.2159 139.4568 0001815  51.3975 308.7180 15.08844396 47754","ELEMENT_SET_NO":"999","SITE":"AFETR","TIME_SYSTEM":"UTC","RCS_SIZE":"LARGE","OBJECT_TYPE":"PAYLOAD","PERIAPSIS":"538.476","CLASSIFICATION_TYPE":"U","DECAY_DATE":null,"OBJECT_NAME":"STARLINK-3124","BSTAR":"-0.00009514900000","ARG_OF_PERICENTER":"51.3975","OBJECT_ID":"2021-104BA","GP_ID":"213191465","EPHEMERIS_TYPE":"0","REF_FRAME":"TEME","MEAN_MOTION":"15.08844396","FILE":"3579752","NORAD_CAT_ID":"49456","RA_OF_ASC_NODE":"139.4568","CENTER_NAME":"EARTH","MEAN_MOTION_DOT":"-0.00001802","INCLINATION":"53.2159","COUNTRY_CODE":"US","SEMIMAJOR_AXIS":"6917.867","MEAN_ELEMENT_THEORY":"SGP4","MEAN_ANOMALY":"308.7180","LAUNCH_DATE":"2021-11-13","PERIOD":"95.437","EPOCH":"2022-09-21T08:25:11.426016","APOAPSIS":"540.988","MEAN_MOTION_DDOT":"0.0000000000000","ECCENTRICITY":"0.00018150","REV_AT_EPOCH":"4775","TLE_LINE1":"1 49456U 21104BA  22264.35082669 -.00001802  00000-0 -95149-4 0  9996"},{"CLASSIFICATION_TYPE":"U","DECAY_DATE":null,"OBJECT_NAME":"STARLINK-3132","BSTAR":"0.00007175600000","ARG_OF_PERICENTER":"66.1706","OBJECT_ID":"2021-104BB","GP_ID":"213192717","PERIAPSIS":"538.624","RCS_SIZE":"LARGE","OBJECT_TYPE":"PAYLOAD","TLE_LINE2":"2 49457  53.2169 136.8351 0001625  66.1706 293.9456 15.08839130 47843","ELEMENT_SET_NO":"999","TIME_SYSTEM":"UTC","SITE":"AFETR","APOAPSIS":"540.872","MEAN_MOTION_DDOT":"0.0000000000000","ECCENTRICITY":"0.00016250","REV_AT_EPOCH":"4784","TLE_LINE1":"1 49457U 21104BB  22264.93594484  .00000854  00000-0  71756-4 0  9996","INCLINATION":"53.2169","COUNTRY_CODE":"US","SEMIMAJOR_AXIS":"6917.883","MEAN_ELEMENT_THEORY":"SGP4","MEAN_ANOMALY":"293.9456","LAUNCH_DATE":"2021-11-13","EPOCH":"2022-09-21T22:27:45.634176","PERIOD":"95.438","EPHEMERIS_TYPE":"0","REF_FRAME":"TEME","NORAD_CAT_ID":"49457","FILE":"3579752","MEAN_MOTION":"15.08839130","RA_OF_ASC_NODE":"136.8351","MEAN_MOTION_DOT":"0.00000854","CENTER_NAME":"EARTH"}];
